STARLINK-36882          
1 67980U 26038V   26064.16668981 -.01492237  71947-3 -23666-2 0  9998
2 67980  97.2737  74.1008 0001113  53.0295 352.5712 16.03897672  2474
STARLINK-36874          
1 67981U 26038W   26064.16668981 -.01501911  73041-3 -23463-2 0  9991
2 67981  97.2737  74.1030 0001142  49.3850   0.9122 16.04152135  2475
STARLINK-36879          
1 67982U 26038X   26064.16668981 -.01519999  74813-3 -23552-2 0  9994
2 67982  97.2734  74.1040 0001031  56.0009 356.7162 16.04291916  2479
STARLINK-36867          
1 67983U 26038Y   26064.16668981 -.01505615  73736-3 -22959-2 0  9998
2 67983  97.2732  74.1064 0001189  50.1341   7.4920 16.04556600  2478
STARLINK-36266          
1 67984U 26038Z   26064.16668981 -.01511223  74143-3 -23208-2 0  9992
2 67984  97.2734  74.1053 0001118  49.6966   5.7047 16.04439811  2449
STARLINK-36802          
1 67985U 26038AA  26064.16668981 -.01482950  71767-3 -22479-2 0  9995
2 67985  97.2731  74.1070 0001093  56.3210   3.3483 16.04653190  2474
STARLINK-36535          
1 67986U 26039A   26064.16668981 -.01543063  70645-3 -33478-2 0  9995
2 67986  42.9980  83.0163 0001699 268.7184 123.2801 15.97507343  2151
STARLINK-36744          
1 67987U 26039B   26064.16668981 -.01509106  67882-3 -32550-2 0  9995
2 67987  42.9978  83.0126 0001812 265.9018 127.4367 15.97606819  2151
STARLINK-36734          
1 67988U 26039C   26064.16668981 -.01525682  69373-3 -32628-2 0  9996
2 67988  42.9979  83.0084 0001826 268.9863 125.9773 15.97762566  2158
STARLINK-36957          
1 67989U 26039D   26064.16668981 -.01515836  68639-3 -32194-2 0  9999
2 67989  42.9976  83.0048 0001734 270.3196 125.9316 15.97885446  2156
STARLINK-36951          
1 67990U 26039E   26062.58336806 -.01203403  46966-3 -20187-2 0  9995
2 67990  42.9990  92.9652 0001818 277.2446 349.1623 16.01949740  1896
STARLINK-36941          
1 67991U 26039F   26064.16668981 -.01486921  66421-3 -31142-2 0  9993
2 67991  42.9977  82.9978 0001874 267.2493 131.7297 15.98130138  2155
STARLINK-36950          
1 67992U 26039G   26064.16668981 -.01460709  64366-3 -30382-2 0  9991
2 67992  42.9978  82.9941 0001830 262.9755 137.5282 15.98249640  2159
STARLINK-36975          
1 67993U 26039H   26064.16668981 -.01478852  65945-3 -30510-2 0  9997
2 67993  42.9977  82.9905 0001866 269.9496 131.9453 15.98397209  2150
STARLINK-36993          
1 67994U 26039J   26064.16668981 -.01484119  66477-3 -30378-2 0  9994
2 67994  42.9978  82.9868 0001769 268.0075 135.4624 15.98538437  2154
STARLINK-36968          
1 67995U 26039K   26064.16668981 -.01500628  68055-3 -30214-2 0  9992
2 67995  42.9977  82.9756 0001786 270.5003 137.3188 15.98832958  2159
